NORAD_CAT_ID,OBJECT_NAME,OBJECT_TYPE,EPOCH,MEAN_MOTION,ECCENTRICITY,INCLINATION,RA_OF_ASC_NODE,ARG_OF_PERICENTER,MEAN_ANOMALY,BSTAR,MEAN_MOTION_DOT,MEAN_MOTION_DDOT,TLE_LINE0,TLE_LINE1,TLE_LINE2,SEMIMAJOR_AXIS,PERIOD,APOGEE,PERIGEE,DECAYED
49133.0,STARLINK-3077,PAYLOAD,2022-05-12 14:00:01,14.9832626,0.0003432,70.0019,217.0527,274.6041,162.5776,0.0022629,0.0002701,0.0,0 STARLINK-3077,1 49133U 21082D   22132.58334491  .00027010  00000-0  22629-2 0  9993,2 49133  70.0019 217.0527 0003432 274.6041 162.5776 14.98326260  1308,6950.204000000002,96.107,574.455,569.684,0.0
49133.0,STARLINK-3077,PAYLOAD,2022-05-12 20:00:01,14.98368353,0.0003463,70.0016,216.4222,274.4356,70.8593,-0.0035116999999999,-0.00041788,0.0,0 STARLINK-3077,1 49133U 21082D   22132.83334491 -.00041788  00000-0 -35117-2 0  9997,2 49133  70.0016 216.4222 0003463 274.4356  70.8593 14.98368353 36733,6950.074000000001,96.105,574.346,569.5319999999998,0.0
49133.0,STARLINK-3077,PAYLOAD,2022-05-12 22:00:00,14.98359329,0.000343,70.0017,216.2121,272.7707,161.9046,-0.0024202,-0.00028875,0.0,0 STARLINK-3077,1 49133U 21082D   22132.91667824 -.00028875  00000-0 -24202-2 0  9990,2 49133  70.0017 216.2121 0003430 272.7707 161.9046 14.98359329  1308,6950.102,96.105,574.351,569.5830000000002,0.0
49133.0,STARLINK-3077,PAYLOAD,2022-05-13 14:00:01,14.98324148,0.0003362,70.0021,214.5314,274.8312,154.8589,0.00081346,9.625e-05,0.0,0 STARLINK-3077,1 49133U 21082D   22133.58334491  .00009625  00000-0  81346-3 0  9998,2 49133  70.0021 214.5314 0003362 274.8312 154.8589 14.98324148 36859,6950.2109999999975,96.107,574.413,569.739,0.0
49133.0,STARLINK-3077,PAYLOAD,2022-05-13 22:00:00,14.98328417,0.0003278,70.002,213.6909,272.6805,154.4934,-0.003607,-0.00042868,0.0,0 STARLINK-3077,1 49133U 21082D   22133.91667824 -.00042868  00000-0 -36070-2 0  9995,2 49133  70.0020 213.6909 0003278 272.6805 154.4934 14.98328417  1302,6950.198,96.107,574.341,569.785,0.0
49133.0,STARLINK-3077,PAYLOAD,2022-05-14 06:00:00,14.98329152,0.0003317,70.0023,212.8507,269.3211,155.3129,-2.3142e-05,-3.69e-06,0.0,0 STARLINK-3077,1 49133U 21082D   22134.25001157 -.00000369  00000-0 -23142-4 0  9992,2 49133  70.0023 212.8507 0003317 269.3211 155.3129 14.98329152 36950,6950.196,96.107,574.366,569.755,0.0
49133.0,STARLINK-3077,PAYLOAD,2022-05-14 14:00:01,14.98310233,0.0003313,70.0021,212.0104,275.2914,146.8323,0.0032422,0.00038788,0.0,0 STARLINK-3077,1 49133U 21082D   22134.58334491  .00038788  00000-0  32422-2 0  9991,2 49133  70.0021 212.0104 0003313 275.2914 146.8323 14.98310233  1307,6950.254,96.108,574.422,569.816,0.0
49133.0,STARLINK-3077,PAYLOAD,2022-05-14 22:00:00,14.98343612,0.0003262,70.0018,211.17,272.9114,146.6944,-0.0014461,-0.00017311,0.0,0 STARLINK-3077,1 49133U 21082D   22134.91667824 -.00017311  00000-0 -14461-2 0  9991,2 49133  70.0018 211.1700 0003262 272.9114 146.6944 14.98343612  1308,6950.151,96.106,574.283,569.749,0.0
49133.0,STARLINK-3077,PAYLOAD,2022-05-15 14:00:01,14.98306254,0.0003234,70.0015,209.4915,276.7509,137.9148,0.0036292,0.00043453,0.0,0 STARLINK-3077,1 49133U 21082D   22135.58335648  .00043453  00000-0  36292-2 0  9991,2 49133  70.0015 209.4915 0003234 276.7509 137.9148 14.98306254 37154,6950.266,96.109,574.379,569.884,0.0
49133.0,STARLINK-3077,PAYLOAD,2022-05-15 22:00:00,14.98337257,0.000314,70.0014,208.649,273.3379,138.7469,-0.00076406,-9.199e-05,0.0,0 STARLINK-3077,1 49133U 21082D   22135.91667824 -.00009199  00000-0 -76406-3 0  9995,2 49133  70.0014 208.6490 0003140 273.3379 138.7469 14.98337257  1306,6950.17,96.107,574.2180000000002,569.8530000000002,0.0
49133.0,STARLINK-3077,PAYLOAD,2022-05-16 06:00:02,14.98370421,0.0003247,70.0016,207.8086,270.3696,139.2478,-0.0050216,-0.00059567,0.0,0 STARLINK-3077,1 49133U 21082D   22136.25002315 -.00059567  00000-0 -50216-2 0  9995,2 49133  70.0016 207.8086 0003247 270.3696 139.2478 14.98370421 37256,6950.068,96.104,574.19,569.6759999999998,0.0
49133.0,STARLINK-3077,PAYLOAD,2022-05-16 14:00:01,14.98292825,0.0003353,70.0014,206.9682,276.0836,130.9798,0.0034236,0.00040958,0.0,0 STARLINK-3077,1 49133U 21082D   22136.58334491  .00040958  00000-0  34236-2 0  9990,2 49133  70.0014 206.9682 0003353 276.0836 130.9798 14.98292825  1304,6950.308000000001,96.109,574.503,569.842,0.0
49133.0,STARLINK-3077,PAYLOAD,2022-05-16 22:00:00,14.98319001,0.0003316,70.0009,206.1278,272.6387,131.8908,-0.00025013,-3.075e-05,0.0,0 STARLINK-3077,1 49133U 21082D   22136.91667824 -.00003075  00000-0 -25013-3 0  9991,2 49133  70.0009 206.1278 0003316 272.6387 131.8908 14.98319001 37356,6950.227,96.108,574.3969999999998,569.7869999999998,0.0
49133.0,STARLINK-3077,PAYLOAD,2022-05-17 14:00:01,14.98326415,0.0003393,70.0009,204.4469,275.3445,124.2095,0.0019375,0.000231,0.0,0 STARLINK-3077,1 49133U 21082D   22137.58335648  .00023100  00000-0  19375-2 0  9993,2 49133  70.0009 204.4469 0003393 275.3445 124.2095 14.98326415 37450,6950.204000000002,96.107,574.427,569.711,0.0
49133.0,STARLINK-3077,PAYLOAD,2022-05-17 22:00:01,14.98326234,0.0003311,70.0004,203.6064,271.6988,125.3579,-0.00083557,-0.00010048,0.0,0 STARLINK-3077,1 49133U 21082D   22137.91668981 -.00010048  00000-0 -83557-3 0  9992,2 49133  70.0004 203.6064 0003311 271.6988 125.3579 14.98326234  1301,6950.205,96.107,574.371,569.768,0.0
49133.0,STARLINK-3077,PAYLOAD,2022-05-18 06:00:00,14.98349674,0.0003352,70.0007,202.7661,269.3143,125.1458,-0.00097835,-0.00011753,0.0,0 STARLINK-3077,1 49133U 21082D   22138.25001157 -.00011753  00000-0 -97835-3 0  9994,2 49133  70.0007 202.7661 0003352 269.3143 125.1458 14.98349674 37552,6950.132,96.106,574.327,569.6669999999998,0.0
49133.0,STARLINK-3077,PAYLOAD,2022-05-18 14:00:01,14.9832598,0.0003367,70.0004,201.9256,274.8344,117.1257,0.0022024,0.00026282,0.0,0 STARLINK-3077,1 49133U 21082D   22138.58334491  .00026282  00000-0  22024-2 0  9998,2 49133  70.0004 201.9256 0003367 274.8344 117.1257 14.98325980  1306,6950.205,96.107,574.41,569.73,0.0
49133.0,STARLINK-3077,PAYLOAD,2022-05-18 22:00:00,14.98320294,0.0003291,70.0002,201.0851,271.2021,118.258,-0.00034514,-4.208e-05,0.0,0 STARLINK-3077,1 49133U 21082D   22138.91667824 -.00004208  00000-0 -34514-3 0  9998,2 49133  70.0002 201.0851 0003291 271.2021 118.2580 14.98320294  1309,6950.223000000001,96.108,574.375,569.8009999999998,0.0
49133.0,STARLINK-3077,PAYLOAD,2022-05-19 14:00:01,14.98323253,0.0003308,70.0002,199.4043,274.97700000000003,109.4979,0.00092344,0.00010941,0.0,0 STARLINK-3077,1 49133U 21082D   22139.58335648  .00010941  00000-0  92344-3 0  9992,2 49133  70.0002 199.4043 0003308 274.9770 109.4979 14.98323253  1304,6950.214,96.107,574.378,569.78,0.0
49133.0,STARLINK-3077,PAYLOAD,2022-05-19 22:00:00,14.98307514,0.0003207,70.0002,198.5639,271.132,110.7759,0.0010457,0.00012399,0.0,0 STARLINK-3077,1 49133U 21082D   22139.91667824  .00012399  00000-0  10457-2 0  9996,2 49133  70.0002 198.5639 0003207 271.1320 110.7759 14.98307514 37800,6950.262,96.108,574.356,569.898,0.0
49133.0,STARLINK-3077,PAYLOAD,2022-05-20 14:00:01,14.98309098,0.0003249,70.0003,196.8831,275.4215,101.4483,0.0038702,0.00046368,0.0,0 STARLINK-3077,1 49133U 21082D   22140.58334491  .00046368  00000-0  38702-2 0  9998,2 49133  70.0003 196.8831 0003249 275.4215 101.4483 14.98309098  1308,6950.2580000000025,96.108,574.381,569.864,0.0
49133.0,STARLINK-3077,PAYLOAD,2022-05-20 22:00:00,14.98318692,0.000319,70.0003,196.0429,271.1706,103.1841,0.0019544,0.00023298,0.0,0 STARLINK-3077,1 49133U 21082D   22140.91667824  .00023298  00000-0  19544-2 0  9994,2 49133  70.0003 196.0429 0003190 271.1706 103.1841 14.98318692  1303,6950.228,96.108,574.31,569.876,0.0
49133.0,STARLINK-3077,PAYLOAD,2022-05-21 06:00:00,14.98379652,0.0003208,70.0006,195.2025,270.5824,101.241,-0.0069664,-0.00082354,0.0,0 STARLINK-3077,1 49133U 21082D   22141.25001157 -.00082354  00000-0 -69664-2 0  9991,2 49133  70.0006 195.2025 0003208 270.5824 101.2410 14.98379652 38004,6950.0390000000025,96.104,574.134,569.675,0.0
49133.0,STARLINK-3077,PAYLOAD,2022-05-21 14:00:01,14.98300257,0.0003099,70.0004,194.362,276.4464,92.952,0.0036441,0.00043626,0.0,0 STARLINK-3077,1 49133U 21082D   22141.58335648  .00043626  00000-0  36441-2 0  9996,2 49133  70.0004 194.3620 0003099 276.4464  92.9520 14.98300257  1302,6950.285,96.109,574.304,569.996,0.0
49133.0,STARLINK-3077,PAYLOAD,2022-05-21 22:00:00,14.98306078,0.0003038,70.0004,193.5216,271.4652,95.3504,0.0029479,0.00035236,0.0,0 STARLINK-3077,1 49133U 21082D   22141.91667824  .00035236  00000-0  29479-2 0  9998,2 49133  70.0004 193.5216 0003038 271.4652  95.3504 14.98306078 38105,6950.267,96.109,574.243,570.02,0.0
49133.0,STARLINK-3077,PAYLOAD,2022-05-22 14:00:01,14.98323202,0.0003187,70.0006,191.8407,276.3674,85.4015,-0.00038424,-4.674e-05,0.0,0 STARLINK-3077,1 49133U 21082D   22142.58334491 -.00004674  00000-0 -38424-3 0  9998,2 49133  70.0006 191.8407 0003187 276.3674  85.4015 14.98323202 38209,6950.214,96.107,574.294,569.864,0.0
49133.0,STARLINK-3077,PAYLOAD,2022-05-22 22:00:01,14.98291946,0.0003188999999999,70.0006,191.0002,270.8563,88.4616,0.0034414,0.00041171,0.0,0 STARLINK-3077,1 49133U 21082D   22142.91668981  .00041171  00000-0  34414-2 0  9994,2 49133  70.0006 191.0002 0003189 270.8563  88.4616 14.98291946  1300,6950.311,96.109,574.3919999999998,569.9590000000002,0.0
49133.0,STARLINK-3077,PAYLOAD,2022-05-23 14:00:01,14.98303734,0.0003044,70.0001,189.3251,269.7769,84.4045,0.0034873,0.00041737,0.0,0 STARLINK-3077,1 49133U 21082D   22143.58334491  .00041737  00000-0  34873-2 0  9991,2 49133  70.0001 189.3251 0003044 269.7769  84.4045 14.98303734  1307,6950.274,96.109,574.255,570.023,0.0
49133.0,STARLINK-3077,PAYLOAD,2022-05-23 16:00:00,14.98338797,0.0003294,70.0005,189.1092,275.1627,168.3908,-0.0011003,-0.000132,0.0,0 STARLINK-3077,1 49133U 21082D   22143.66667824 -.00013200  00000-0 -11003-2 0  9995,2 49133  70.0005 189.1092 0003294 275.1627 168.3908 14.98338797 38366,6950.166,96.106,574.32,569.741,0.0
